STARLINK-2126           
1 47726U 21017E   21302.27274412  .00000007  00000-0  19400-4 0  9999
2 47726  53.0551 150.2476 0001646  74.5065 285.6105 15.06393670 37845
STARLINK-2129           
1 47727U 21017F   21302.37040206  .00041283  00000-0  49810-3 0  9991
2 47727  53.0528  79.2357 0003015  61.2788 298.8528 15.60367468 38881
STARLINK-2131           
1 47728U 21017G   21302.31328199  .00002135  00000-0  16220-3 0  9998
2 47728  53.0560 150.0757 0001863  76.8050 283.3146 15.06400819 37919
STARLINK-2132           
1 47729U 21017H   21302.45564078 -.00000036  00000-0  16477-4 0  9996
2 47729  53.0551  94.4192 0001612  76.1521 283.9647 15.06401157 38641
STARLINK-2140           
1 47730U 21017J   21302.33492504  .00000266  00000-0  36768-4 0  9998
2 47730  53.0561 164.9797 0001653  74.0687 286.0484 15.06388642 37659
STARLINK-2141           
1 47731U 21017K   21302.40819319  .00002314  00000-0  17415-3 0  9997
2 47731  53.0548 159.6469 0001594  80.3234 279.7935 15.06403583 37746
STARLINK-2142           
1 47732U 21017L   21302.45935429 -.00552114  00000-0 -11320-1 0  9991
2 47732  53.0410  76.8626 0001514  29.5482 330.5610 15.47538304 38902
STARLINK-2143           
1 47733U 21017M   21302.46257827  .00002440  00000-0  18270-3 0  9995
2 47733  53.0557 169.4996 0001847  72.6398 287.4793 15.06394023 37654
STARLINK-2144           
1 47734U 21017N   21302.41556599 -.00000445  00000-0 -10934-4 0  9994
2 47734  53.0548 159.6119 0002007  70.9208 289.1998 15.06403982 37755
STARLINK-2146           
1 47735U 21017P   21302.41608785 -.00169723  00000-0 -11358-1 0  9993
2 47735  53.0389  84.5951 0002544  50.3561 309.7652 15.07331098 38788
STARLINK-2147           
1 47736U 21017Q   21302.51601426  .00001077  00000-0  91225-4 0  9999
2 47736  53.0563 149.1597 0001799  80.8618 279.2574 15.06396392 37947
STARLINK-2148           
1 47737U 21017R   21302.39851781  .00000789  00000-0  71857-4 0  9995
2 47737  53.0545  84.6780 0002624  30.3370 329.7770 15.06411992 38830
STARLINK-2149           
1 47738U 21017S   21302.06632457 -.00000057  00000-0  15114-4 0  9990
2 47738  53.0539 151.1915 0004184 312.8969  47.1669 15.06393634 37872
STARLINK-2150           
1 47739U 21017T   21302.04743266  .00000363  00000-0  43270-4 0  9993
2 47739  53.0541 176.2719 0001807  78.5549 281.5643 15.06393050 37525
STARLINK-2152           
1 47740U 21017U   21302.42663233  .00000344  00000-0  42008-4 0  9999
2 47740  53.0552 159.5760 0001823  79.8606 280.2588 15.06397361 37786
STARLINK-2154           
1 47741U 21017V   21302.50771875  .00000050  00000-0  22280-4 0  9995
2 47741  53.0552 159.2092 0001814  69.8019 290.3165 15.06399193 37754
STARLINK-2156           
1 47742U 21017W   21302.32066247 -.00000411  00000-0 -86630-5 0  9999
2 47742  53.0566 150.0475 0001805  74.6131 285.5057 15.06392286 37913
STARLINK-2157           
1 47743U 21017X   21302.28012203 -.00000480  00000-0 -13307-4 0  9994
2 47743  53.0546 150.2113 0001875  75.8224 284.2973 15.06390817 37883
STARLINK-2158           
1 47744U 21017Y   21302.05894899  .00001561  00000-0  12364-3 0  9999
2 47744  53.0561 151.2185 0001699  80.6228 279.4953 15.06400402 37878
STARLINK-2159           
1 47745U 21017Z   21302.41924850  .00000153  00000-0  29207-4 0  9992
2 47745  53.0559 159.6104 0001784  77.1932 282.9256 15.06405843 37731
STARLINK-2160           
1 47746U 21017AA  21302.08014684  .00000078  00000-0  24139-4 0  9996
2 47746  53.0544 161.1082 0001889  79.3447 280.7754 15.06403152 37673
STARLINK-2161           
1 47747U 21017AB  21302.27642257  .00001672  00000-0  13115-3 0  9993
2 47747  53.0562 150.2429 0001837  79.0628 281.0567 15.06400232 37884
STARLINK-2162           
1 47748U 21017AC  21302.07001253 -.00000238  00000-0  29387-5 0  9995
2 47748  53.0564 151.1709 0001732  83.4224 276.6962 15.06401634 37823
STARLINK-2163           
1 47749U 21017AD  21302.41650101  .00000035  00000-0  21276-4 0  9998
2 47749  53.0546 149.5976 0001842  82.7067 277.4131 15.06388793 37872
STARLINK-2164           
1 47750U 21017AE  21302.06263421  .00001534  00000-0  12184-3 0  9998
2 47750  53.0555 151.1967 0001739  82.4407 277.6779 15.06398822 37822
STARLINK-2168           
1 47751U 21017AF  21302.29209624 -.00000644  00000-0 -24314-4 0  9991
2 47751  53.0513 140.1714 0001840  77.7485 282.3710 15.06392906 38007
STARLINK-2169           
1 47752U 21017AG  21302.32572843  .00001189  00000-0  98739-4 0  9997
2 47752  53.0559 155.0248 0001905  80.1164 280.0040 15.06396744 37845
STARLINK-2170           
1 47753U 21017AH  21302.50034188  .00000540  00000-0  55133-4 0  9994
2 47753  53.0549 159.2210 0001701  82.8759 277.2423 15.06405280 37796
STARLINK-2171           
1 47754U 21017AJ  21302.47086255  .00000295  00000-0  38698-4 0  9997
2 47754  53.0547 159.3625 0001757  78.1669 281.9517 15.06402258 37759
STARLINK-2172           
1 47755U 21017AK  21302.32478920  .00000248  00000-0  35552-4 0  9990
2 47755  53.0568 155.0307 0001990  78.3460 281.7752 15.06396113 37798
STARLINK-2174           
1 47756U 21017AL  21302.46716880  .00001243  00000-0  10236-3 0  9993
2 47756  53.0550 159.3840 0001622  70.5954 289.5211 15.06401149 37795
STARLINK-2175           
1 47757U 21017AM  21302.31974297 -.00000255  00000-0  17899-5 0  9993
2 47757  53.0558 160.0420 0001897  77.5033 282.6168 15.06388071 37711
STARLINK-2176           
1 47758U 21017AN  21302.45611558 -.00000315  00000-0 -20720-5 0  9992
2 47758  53.0567 159.4363 0006885 344.0650  16.0121 15.06395641 37796
STARLINK-2177           
1 47759U 21017AP  21302.27723336  .00020100  00000-0  46899-3 0  9996
2 47759  53.0539 141.0072 0000876 136.1478 223.9596 15.42230406 38021
STARLINK-2178           
1 47760U 21017AQ  21302.41833365  .00000142  00000-0  28469-4 0  9996
2 47760  53.0545 169.5664 0001655  84.6072 275.5105 15.06399675 37623
STARLINK-2179           
1 47761U 21017AR  21302.31605975  .00000295  00000-0  38734-4 0  9995
2 47761  53.0540 160.0674 0001713  79.9380 280.1802 15.06393466 37729
STARLINK-2180           
1 47762U 21017AS  21302.47406080  .00001214  00000-0  10040-3 0  9990
2 47762  53.0556 174.3619 0001976  65.4728 294.6467 15.06401685 37552
STARLINK-2181           
1 47763U 21017AT  21302.42432512 -.00000117  00000-0  11071-4 0  9993
2 47763  53.0567 164.4671 0002032  84.5732 275.5489 15.06396328 37665
STARLINK-2182           
1 47764U 21017AU  21302.46025307  .00000185  00000-0  31318-4 0  9998
2 47764  53.0557 174.4136 0001926  72.0339 288.0860 15.06403909 37585
STARLINK-2183           
1 47765U 21017AV  21302.29623857 -.00000620  00000-0 -22738-4 0  9996
2 47765  53.0547 155.1397 0001682  71.2860 288.8312 15.06397585 37794
STARLINK-2184           
1 47766U 21017AW  21302.08061070  .00000099  00000-0  25539-4 0  9997
2 47766  53.0552 176.1166 0001748  75.7165 284.4018 15.06392712 37464
STARLINK-2185           
1 47767U 21017AX  21302.30499197 -.00000065  00000-0  14540-4 0  9992
2 47767  53.0549 160.1093 0001637  80.9154 279.2021 15.06397766 37770
STARLINK-2189           
1 47768U 21017AY  21301.97645490  .00003883  00000-0  27955-3 0  9997
2 47768  53.0555 176.5985 0001873  75.1740 284.9457 15.06388073 37483
STARLINK-2192           
1 47769U 21017AZ  21302.28840389  .00001881  00000-0  14514-3 0  9990
2 47769  53.0527 140.1839 0001605  77.7988 282.3180 15.06397142 38048
STARLINK-2193           
1 47770U 21017BA  21302.29161336  .00000275  00000-0  37364-4 0  9996
2 47770  53.0542 155.1601 0001766  77.7507 282.3679 15.06396047 37815
STARLINK-2194           
1 47771U 21017BB  21302.50633944 -.00000220  00000-0  41347-5 0  9998
2 47771  53.0546 154.1963 0001700  79.8440 280.2741 15.06389760 37852
STARLINK-2195           
1 47772U 21017BC  21302.42938949  .00000598  00000-0  59050-4 0  9999
2 47772  53.0542 169.5428 0002026  71.5296 288.5914 15.06402288 37602
STARLINK-2196           
1 47773U 21017BD  21302.02762979 -.00000128  00000-0  10286-4 0  9992
2 47773  53.0542 171.3515 0001829  73.1004 287.0185 15.06388894 37538
STARLINK-2197           
1 47774U 21017BE  21302.02393922 -.00001624  00000-0 -90134-4 0  9994
2 47774  53.0538 171.3647 0001572  75.7757 284.3406 15.06392088 37545
STARLINK-2198           
1 47775U 21017BF  21301.96865503 -.00000262  00000-0  12996-5 0  9993
2 47775  53.0548 171.6326 0001812  77.8631 282.2561 15.06389470 37589
STARLINK-2209           
1 47776U 21017BG  21302.32711485 -.00000138  00000-0  96098-5 0  9991
2 47776  53.0557 160.0159 0001782  79.9879 280.1311 15.06389531 37745
STARLINK-2210           
1 47777U 21017BH  21302.46349346 -.00000580  00000-0 -20051-4 0  9997
2 47777  53.0554 159.4094 0001870  82.3506 277.7695 15.06393118 37761
STARLINK-2211           
1 47778U 21017BJ  21302.03223633 -.00000088  00000-0  13012-4 0  9992
2 47778  53.0555 161.5105 0001995  72.8287 287.2920 15.06395352 37699
STARLINK-2212           
1 47779U 21017BK  21302.51140862  .00001450  00000-0  11624-3 0  9997
2 47779  53.0535 159.1771 0001781  75.6425 284.4762 15.06398375 37778
STARLINK-2213           
1 47780U 21017BL  21302.31511040 -.00000233  00000-0  32908-5 0  9996
2 47780  53.0550 160.0660 0001805  72.6094 287.5092 15.06392959 37773
STARLINK-2223           
1 47781U 21017BM  21302.09121223  .00000606  00000-0  59609-4 0  9991
2 47781  53.0552 161.0731 0001802  76.6581 283.4609 15.06393703 37696
STARLINK-2257           
1 47787U 21018A   21302.44137215  .00001696  00000-0  13271-3 0  9999
2 47787  53.0561 199.5059 0001969  69.5818 290.5382 15.06398635 36605
STARLINK-2314           
1 47788U 21018B   21302.51375025  .00001541  00000-0  13016-3 0  9997
2 47788  53.0586 173.2946 0001756  67.1994 292.9179 15.03961724 36994
STARLINK-2315           
1 47789U 21018C   21302.17044813  .00001027  00000-0  87855-4 0  9990
2 47789  53.0570 180.7091 0001870  78.7475 281.3724 15.06404551 36857
